ONEWEB-0403             
1 50483U 21132Q   25259.12758121  .00000058  00000+0  11326-3 0  9997
2 50483  87.9193  29.8699 0001869  97.8905 262.2439 13.18685561185471
ONEWEB-0404             
1 50484U 21132R   25259.50238854 -.00000110  00000+0 -34514-3 0  9991
2 50484  87.8769  75.5969 0002028  89.9639 270.1722 13.11415171179828
ONEWEB-0405             
1 50485U 21132S   25259.59769074  .00000055  00000+0  10711-3 0  9993
2 50485  87.9192  29.7618 0001678  87.7687 272.3638 13.18685800185935
ONEWEB-0406             
1 50486U 21132T   25259.36016264  .00000048  00000+0  89209-4 0  9996
2 50486  87.9194  29.8326 0002269 104.5163 255.6221 13.18685117185538
ONEWEB-0407             
1 50487U 21132U   25259.12593953  .00000020  00000+0  18193-4 0  9990
2 50487  87.9192  29.8639 0001546  97.4644 262.6664 13.18683536185447
ONEWEB-0409             
1 50488U 21132V   25259.50069346  .00000056  00000+0  12349-3 0  9992
2 50488  87.8781  75.5570 0001992  95.2977 264.8378 13.11415956179714
ONEWEB-0412             
1 50489U 21132W   25259.34201329 -.00000002  00000+0 -38412-4 0  9997
2 50489  87.9190  29.8335 0001571  87.0723 273.0589 13.18687314185564
ONEWEB-0413             
1 50490U 21132X   25259.34696762 -.00000135  00000+0 -37563-3 0  9990
2 50490  87.9194  29.8492 0001475  91.3045 268.8256 13.18687040185505
